CCSDS_OMM_VERS = 2.0
CREATION_DATE  = 
ORIGINATOR     = 

OBJECT_NAME    = SL-14 R/B
OBJECT_ID      = 1991-042B
CENTER_NAME    = EARTH
REF_FRAME      = TEME
TIME_SYSTEM    = UTC
MEAN_ELEMENT_THEORY = SGP/SGP4

EPOCH          = 2026-01-05T03:31:56.664768
MEAN_MOTION    = 14.81765506
ECCENTRICITY   = .00185621
INCLINATION    = 82.4938
RA_OF_ASC_NODE = 279.7757
ARG_OF_PERICENTER = 89.7671
MEAN_ANOMALY   = 270.5670

EPHEMERIS_TYPE = 0
CLASSIFICATION_TYPE = U
NORAD_CAT_ID   = 21423
ELEMENT_SET_NO = 999
REV_AT_EPOCH   = 84366
BSTAR          = .78884285E-4
MEAN_MOTION_DOT = .647E-5
MEAN_MOTION_DDOT = 0

CCSDS_OMM_VERS = 2.0
CREATION_DATE  = 
ORIGINATOR     = 

OBJECT_NAME    = ERS-1
OBJECT_ID      = 1991-050A
CENTER_NAME    = EARTH
REF_FRAME      = TEME
TIME_SYSTEM    = UTC
MEAN_ELEMENT_THEORY = SGP/SGP4

EPOCH          = 2026-01-05T07:15:15.576768
MEAN_MOTION    = 14.39388113
ECCENTRICITY   = .00324997
INCLINATION    = 98.7895
RA_OF_ASC_NODE = 21.9457
ARG_OF_PERICENTER = 31.9953
MEAN_ANOMALY   = 328.3199

EPHEMERIS_TYPE = 0
CLASSIFICATION_TYPE = U
NORAD_CAT_ID   = 21574
ELEMENT_SET_NO = 999
REV_AT_EPOCH   = 80661
BSTAR          = .18647745E-3
MEAN_MOTION_DOT = .537E-5
MEAN_MOTION_DDOT = 0

CCSDS_OMM_VERS = 2.0
CREATION_DATE  = 
ORIGINATOR     = 

OBJECT_NAME    = ARIANE 40 R/B
OBJECT_ID      = 1991-050F
CENTER_NAME    = EARTH
REF_FRAME      = TEME
TIME_SYSTEM    = UTC
MEAN_ELEMENT_THEORY = SGP/SGP4

EPOCH          = 2026-01-05T03:46:13.408032
MEAN_MOTION    = 14.42836769
ECCENTRICITY   = .00020046
INCLINATION    = 98.2129
RA_OF_ASC_NODE = 59.7388
ARG_OF_PERICENTER = 262.7720
MEAN_ANOMALY   = 97.3242

EPHEMERIS_TYPE = 0
CLASSIFICATION_TYPE = U
NORAD_CAT_ID   = 21610
ELEMENT_SET_NO = 999
REV_AT_EPOCH   = 80983
BSTAR          = .16799079E-3
MEAN_MOTION_DOT = .519E-5
MEAN_MOTION_DDOT = 0

CCSDS_OMM_VERS = 2.0
CREATION_DATE  = 
ORIGINATOR     = 

OBJECT_NAME    = INTERCOSMOS 25
OBJECT_ID      = 1991-086A
CENTER_NAME    = EARTH
REF_FRAME      = TEME
TIME_SYSTEM    = UTC
MEAN_ELEMENT_THEORY = SGP/SGP4

EPOCH          = 2026-01-05T01:59:16.064448
MEAN_MOTION    = 12.11825974
ECCENTRICITY   = .14859476
INCLINATION    = 82.6080
RA_OF_ASC_NODE = 348.4544
ARG_OF_PERICENTER = 254.0479
MEAN_ANOMALY   = 89.2375

EPHEMERIS_TYPE = 0
CLASSIFICATION_TYPE = U
NORAD_CAT_ID   = 21819
ELEMENT_SET_NO = 999
REV_AT_EPOCH   = 48898
BSTAR          = .35118596E-3
MEAN_MOTION_DOT = .1763E-4
MEAN_MOTION_DDOT = 0

CCSDS_OMM_VERS = 2.0
CREATION_DATE  = 
ORIGINATOR     = 

OBJECT_NAME    = SL-8 R/B
OBJECT_ID      = 1992-008B
CENTER_NAME    = EARTH
REF_FRAME      = TEME
TIME_SYSTEM    = UTC
MEAN_ELEMENT_THEORY = SGP/SGP4

EPOCH          = 2026-01-05T07:44:15.336672
MEAN_MOTION    = 13.75964604
ECCENTRICITY   = .00338221
INCLINATION    = 82.9283
RA_OF_ASC_NODE = 314.9064
ARG_OF_PERICENTER = 313.4454
MEAN_ANOMALY   = 156.6502

EPHEMERIS_TYPE = 0
CLASSIFICATION_TYPE = U
NORAD_CAT_ID   = 21876
ELEMENT_SET_NO = 999
REV_AT_EPOCH   = 70070
BSTAR          = .11546828E-3
MEAN_MOTION_DOT = .127E-5
MEAN_MOTION_DDOT = 0

CCSDS_OMM_VERS = 2.0
CREATION_DATE  = 
ORIGINATOR     = 

OBJECT_NAME    = SL-8 R/B
OBJECT_ID      = 1992-020B
CENTER_NAME    = EARTH
REF_FRAME      = TEME
TIME_SYSTEM    = UTC
MEAN_ELEMENT_THEORY = SGP/SGP4

EPOCH          = 2026-01-05T06:51:37.103904
MEAN_MOTION    = 13.75534534
ECCENTRICITY   = .00301045
INCLINATION    = 82.9291
RA_OF_ASC_NODE = 200.8320
ARG_OF_PERICENTER = 113.8833
MEAN_ANOMALY   = 58.6092

EPHEMERIS_TYPE = 0
CLASSIFICATION_TYPE = U
NORAD_CAT_ID   = 21938
ELEMENT_SET_NO = 999
REV_AT_EPOCH   = 69241
BSTAR          = .15758309E-3
MEAN_MOTION_DOT = .168E-5
MEAN_MOTION_DDOT = 0

CCSDS_OMM_VERS = 2.0
CREATION_DATE  = 
ORIGINATOR     = 

OBJECT_NAME    = USA 81
OBJECT_ID      = 1992-023A
CENTER_NAME    = EARTH
REF_FRAME      = TEME
TIME_SYSTEM    = UTC
MEAN_ELEMENT_THEORY = SGP/SGP4

EPOCH          = 2026-01-05T03:46:49.972512
MEAN_MOTION    = 14.32338132
ECCENTRICITY   = .00012303
INCLINATION    = 85.0091
RA_OF_ASC_NODE = 168.0706
ARG_OF_PERICENTER = 112.1080
MEAN_ANOMALY   = 248.0244

EPHEMERIS_TYPE = 0
CLASSIFICATION_TYPE = U
NORAD_CAT_ID   = 21949
ELEMENT_SET_NO = 999
REV_AT_EPOCH   = 8569
BSTAR          = .96257321E-4
MEAN_MOTION_DOT = .28E-5
MEAN_MOTION_DDOT = 0

CCSDS_OMM_VERS = 2.0
CREATION_DATE  = 
ORIGINATOR     = 

OBJECT_NAME    = COSMOS 2219
OBJECT_ID      = 1992-076A
CENTER_NAME    = EARTH
REF_FRAME      = TEME
TIME_SYSTEM    = UTC
MEAN_ELEMENT_THEORY = SGP/SGP4

EPOCH          = 2026-01-05T03:20:32.657568
MEAN_MOTION    = 14.14077884
ECCENTRICITY   = .00201541
INCLINATION    = 71.0608
RA_OF_ASC_NODE = 150.9182
ARG_OF_PERICENTER = 294.5903
MEAN_ANOMALY   = 65.3120

EPHEMERIS_TYPE = 0
CLASSIFICATION_TYPE = U
NORAD_CAT_ID   = 22219
ELEMENT_SET_NO = 999
REV_AT_EPOCH   = 70939
BSTAR          = .17486294E-3
MEAN_MOTION_DOT = .286E-5
MEAN_MOTION_DDOT = 0

CCSDS_OMM_VERS = 2.0
CREATION_DATE  = 
ORIGINATOR     = 

OBJECT_NAME    = SL-16 R/B
OBJECT_ID      = 1992-076B
CENTER_NAME    = EARTH
REF_FRAME      = TEME
TIME_SYSTEM    = UTC
MEAN_ELEMENT_THEORY = SGP/SGP4

EPOCH          = 2026-01-05T07:21:56.020032
MEAN_MOTION    = 14.16845407
ECCENTRICITY   = .00136301
INCLINATION    = 71.0011
RA_OF_ASC_NODE = 321.8873
ARG_OF_PERICENTER = 201.8310
MEAN_ANOMALY   = 265.9631

EPHEMERIS_TYPE = 0
CLASSIFICATION_TYPE = U
NORAD_CAT_ID   = 22220
ELEMENT_SET_NO = 999
REV_AT_EPOCH   = 71285
BSTAR          = .19554927E-4
MEAN_MOTION_DOT = -.9E-7
MEAN_MOTION_DDOT = 0

CCSDS_OMM_VERS = 2.0
CREATION_DATE  = 
ORIGINATOR     = 

OBJECT_NAME    = COSMOS 2221
OBJECT_ID      = 1992-080A
CENTER_NAME    = EARTH
REF_FRAME      = TEME
TIME_SYSTEM    = UTC
MEAN_ELEMENT_THEORY = SGP/SGP4

EPOCH          = 2026-01-05T07:09:07.770240
MEAN_MOTION    = 14.95884634
ECCENTRICITY   = .00158975
INCLINATION    = 82.5054
RA_OF_ASC_NODE = 339.7737
ARG_OF_PERICENTER = 50.3878
MEAN_ANOMALY   = 309.8744

EPHEMERIS_TYPE = 0
CLASSIFICATION_TYPE = U
NORAD_CAT_ID   = 22236
ELEMENT_SET_NO = 999
REV_AT_EPOCH   = 77131
BSTAR          = .2419185E-3
MEAN_MOTION_DOT = .2736E-4
MEAN_MOTION_DDOT = 0

CCSDS_OMM_VERS = 2.0
CREATION_DATE  = 
ORIGINATOR     = 

OBJECT_NAME    = SL-16 R/B
OBJECT_ID      = 1992-093B
CENTER_NAME    = EARTH
REF_FRAME      = TEME
TIME_SYSTEM    = UTC
MEAN_ELEMENT_THEORY = SGP/SGP4

EPOCH          = 2026-01-04T18:47:12.681024
MEAN_MOTION    = 14.15434056
ECCENTRICITY   = .00031285
INCLINATION    = 71.0211
RA_OF_ASC_NODE = 138.4241
ARG_OF_PERICENTER = 9.8387
MEAN_ANOMALY   = 350.2796

EPHEMERIS_TYPE = 0
CLASSIFICATION_TYPE = U
NORAD_CAT_ID   = 22285
ELEMENT_SET_NO = 999
REV_AT_EPOCH   = 70411
BSTAR          = -.30040606E-4
MEAN_MOTION_DOT = -.106E-5
MEAN_MOTION_DDOT = 0

CCSDS_OMM_VERS = 2.0
CREATION_DATE  = 
ORIGINATOR     = 

OBJECT_NAME    = COSMOS 2228
OBJECT_ID      = 1992-094A
CENTER_NAME    = EARTH
REF_FRAME      = TEME
TIME_SYSTEM    = UTC
MEAN_ELEMENT_THEORY = SGP/SGP4

EPOCH          = 2026-01-05T06:56:01.717728
MEAN_MOTION    = 14.96867421
ECCENTRICITY   = .00186745
INCLINATION    = 82.5198
RA_OF_ASC_NODE = 298.0021
ARG_OF_PERICENTER = 150.2744
MEAN_ANOMALY   = 209.9544

EPHEMERIS_TYPE = 0
CLASSIFICATION_TYPE = U
NORAD_CAT_ID   = 22286
ELEMENT_SET_NO = 999
REV_AT_EPOCH   = 76657
BSTAR          = .3029505E-3
MEAN_MOTION_DOT = .3511E-4
MEAN_MOTION_DDOT = 0

