SL-14 R/B               
1 21423U 91042B   26005.14718362  .00000647  00000+0  78884-4 0  9998
2 21423  82.4938 279.7757 0018562  89.7671 270.5670 14.81765506843669
ERS-1                   
1 21574U 91050A   26005.30226362  .00000537  00000+0  18648-3 0  9995
2 21574  98.7895  21.9457 0032499  31.9953 328.3199 14.39388113806619
ARIANE 40 R/B           
1 21610U 91050F   26005.15709963  .00000519  00000+0  16799-3 0  9997
2 21610  98.2129  59.7388 0002004 262.7720  97.3242 14.42836769809830
INTERCOSMOS 25          
1 21819U 91086A   26005.08282482  .00001763  00000+0  35119-3 0  9990
2 21819  82.6080 348.4544 1485947 254.0479  89.2375 12.11825974488989
SL-8 R/B                
1 21876U 92008B   26005.32239973  .00000127  00000+0  11547-3 0  9994
2 21876  82.9283 314.9064 0033822 313.4454 156.6502 13.75964604700701
SL-8 R/B                
1 21938U 92020B   26005.28584611  .00000168  00000+0  15758-3 0  9997
2 21938  82.9291 200.8320 0030104 113.8833  58.6092 13.75534534692418
USA 81                  
1 21949U 92023A   26005.15752283  .00000280  00000+0  96257-4 0  9999
2 21949  85.0091 168.0706 0001230 112.1080 248.0244 14.32338132 85699
COSMOS 2219             
1 22219U 92076A   26005.13926687  .00000286  00000+0  17486-3 0  9999
2 22219  71.0608 150.9182 0020154 294.5903  65.3120 14.14077884709399
SL-16 R/B               
1 22220U 92076B   26005.30689838 -.00000009  00000+0  19555-4 0  9998
2 22220  71.0011 321.8873 0013630 201.8310 265.9631 14.16845407712855
COSMOS 2221             
1 22236U 92080A   26005.29800660  .00002736  00000+0  24192-3 0  9996
2 22236  82.5054 339.7737 0015897  50.3878 309.8744 14.95884634771317
SL-16 R/B               
1 22285U 92093B   26004.78278566 -.00000106  00000+0 -30041-4 0  9993
2 22285  71.0211 138.4241 0003128   9.8387 350.2796 14.15434056704113
COSMOS 2228             
1 22286U 92094A   26005.28890877  .00003511  00000+0  30295-3 0  9997
2 22286  82.5198 298.0021 0018674 150.2744 209.9544 14.96867421766578
